[{"OBJECT_NAME":"STARLINK-34968","OBJECT_ID":"2025-184D","EPOCH":"2026-03-09T17:00:58.645440","MEAN_MOTION":15.05647443,"ECCENTRICITY":9.017e-5,"INCLINATION":97.6025,"RA_OF_ASC_NODE":122.6783,"ARG_OF_PERICENTER":93.8917,"MEAN_ANOMALY":266.2413,"EPHEMERIS_TYPE":0,"CLASSIFICATION_TYPE":"U","NORAD_CAT_ID":65276,"ELEMENT_SET_NO":999,"REV_AT_EPOCH":3130,"BSTAR":0.00015362574,"MEAN_MOTION_DOT":2.156e-5,"MEAN_MOTION_DDOT":0},{"OBJECT_NAME":"CZ-6A DEB","OBJECT_ID":"2024-140EZ","EPOCH":"2026-03-09T16:13:02.096544","MEAN_MOTION":15.06200416,"ECCENTRICITY":0.00757943,"INCLINATION":89.319,"RA_OF_ASC_NODE":303.8689,"ARG_OF_PERICENTER":93.3463,"MEAN_ANOMALY":267.6449,"EPHEMERIS_TYPE":0,"CLASSIFICATION_TYPE":"U","NORAD_CAT_ID":60774,"ELEMENT_SET_NO":999,"REV_AT_EPOCH":8499,"BSTAR":0.003121721,"MEAN_MOTION_DOT":0.00049072,"MEAN_MOTION_DDOT":0}]
